{"fetched_at":"2026-03-29T16:36:15Z","count":15609,"tles":[{"name":"STARLINK-31314","line1":"1 58967U 24031C   26087.80647155  .00002165  00000+0  85196-4 0  9990","line2":"2 58967  53.1615 207.6409 0001362  85.0979 275.0177 15.30205158119466","category":"Starlink"}]}